AFIL00178FLIGHT:1
HFDTE101009
HFFXA100
HFPLTPILOT:RICHARD.ROELKE
HFGTYGLIDERTYPE:304CZ
HFGIDGLIDERID:N304CZ
HFDTM100GPSDATUM:WGS-1984
HFGPSGPS:FDK/GSU-14
HFFTYFRTYPE:FILSER,LX21
HFRFWFIRMWAREVERSION:3.0
HFRHWHARDWAREVERSION:1.0
HFCIDCOMPETITIONID:RR
HFCCLCOMPETITIONCLASS:18-METER
C290408034144101009000103
C4045650N07746450WBALDKNOB
C4045650N07746450WBALDKNOB
C3807166N07951016WMTNGRVE2
C4105167N07721682WNITT_NOR
C3957317N07831566WEVITS
C4045650N07746450WBALDKNOB
C4045650N07746450WBALDKNOB
LFILORIGIN1958324423543N07111540W
B1958324423543N07111540WA0021200247
B1958444423542N07111540WA0021200249
B1958564423543N07111540WA0021300251
B1959084423543N07111540WA0021300247
B1959204423543N07111540WA0021300247
B1959324423543N07111540WA0021300247
B1959444423543N07111540WA0021200247
B1959564423543N07111540WA0021300247
B2000084423543N07111540WA0021200247
B2000204423543N07111540WA0021200247
B2000324423543N07111541WA0021100247
B2000444423542N07111540WA0021300247
B2000564423542N07111540WA0021300245
B2001084423541N07111539WA0021200249
B2001204423542N07111540WA0021200243
B2001324423542N07111539WA0021300245
B2001444423542N07111539WA0021200245
B2001564423542N07111538WA0021200245
B2002084423542N07111538WA0021200247
B2002204423542N07111538WA0021200245
B2002324423542N07111538WA0021100245
B2002444423542N07111538WA0021100245
B2002564423542N07111538WA0021100245
B2003084423542N07111538WA0021200245
B2003204423542N07111538WA0021100245
B2003324423542N07111539WA0021100245
B2003444423542N07111539WA0021200245
B2003564423541N07111538WA0021100245
B2004084423541N07111539WA0021100245
B2004204423546N07111558WA0021200245
LFILORIGIN1958324423543N07111540W
LFILORIGIN2004204423555N07111595W
B2004294423570N07111664WA0021900245
B2004344423588N07111757WA0022600245
B2004394423614N07111849WA0025100247
B2004444423635N07111942WA0027200249
B2004494423660N07112038WA0029100251
B2004544423683N07112143WA0031200253
B2004594423702N07112241WA0033800257
B2005044423720N07112329WA0036500265
B2005094423740N07112408WA0039500273
B2005144423767N07112475WA0042100285
B2005194423809N07112526WA0044500299
B2005244423863N07112562WA0047100315
B2005294423933N07112555WA0049500333
B2005344424009N07112519WA0052000355
B2005394424076N07112430WA0054300375
B2005444424127N07112313WA0057300397
B2005494424158N07112178WA0060700417
B2005544424172N07112024WA0062700437
B2005594424202N07111880WA0064600455
B2006044424241N07111741WA0066800465
B2006094424280N07111600WA0068700481
B2006144424317N07111461WA0071100497
B2006194424361N07111331WA0073500511
B2006244424414N07111209WA0076100527
B2006294424469N07111081WA0078300541
B2006344424522N07110970WA0082900555
B2006394424552N07110888WA0085600571
B2006444424596N07110805WA0082900587
B2006494424652N07110706WA0081700601
B2006544424701N07110598WA0082000613
B2006594424740N07110486WA0083200627
B2007044424774N07110379WA0082700641
B2007094424822N07110273WA0083100655
B2007144424869N07110184WA0084600667
B2007194424909N07110112WA0086000683
B2007244424950N07110034WA0086400697
B2007294424989N07109947WA0088400713
B2007344425023N07109857WA0088600729
B2007394425062N07109768WA0089500745
B2007444425103N07109728WA0090400763
B2007494425131N07109759WA0089800778
B2007544425099N07109820WA0090400790
B2007594425028N07109852WA0090000802
B2008044424954N07109885WA0090800810
B2008094424889N07109927WA0091500821
B2008144424835N07109977WA0092900829
B2008194424780N07110031WA0093200839
B2008244424747N07110096WA0093800849
B2008294424766N07110117WA0093200859
B2008344424812N07110053WA0092700868
B2008394424842N07109957WA0092500876
B2008444424874N07109873WA0093200885
B2008494424909N07109795WA0093700893
B2008544424947N07109739WA0094300901
B2008594424981N07109744WA0094400909
B2009044424982N07109802WA0094600914
B2009094424936N07109859WA0095200922
B2009144424879N07109909WA0095400930
B2009194424831N07109970WA0095500937
B2009244424802N07110032WA0096100943
B2009294424788N07110095WA0095800951
B2009344424793N07110152WA0095200957
B2009394424829N07110123WA0094600958
B2009444424856N07110020WA0094500960
B2009494424879N07109921WA0095500962
B2009544424900N07109823WA0096400967
B2009594424925N07109728WA0097200971
B2010044424961N07109696WA0098700977
B2010094424976N07109725WA0098300980
B2010144424942N07109777WA0098500984
B2010194424876N07109818WA0097300986
B2010244424811N07109869WA0097600989
B2010294424781N07109929WA0098300991
B2010344424807N07109962WA0098100995
B2010394424859N07109921WA0097600996
B2010444424884N07109817WA0098000998
B2010494424910N07109711WA0098000998
B2010544424944N07109622WA0099000999
B2010594424983N07109547WA0099501003
B2011044425026N07109485WA0100101005
B2011094425062N07109481WA0101001007
B2011144425064N07109525WA0101801008
B2011194425032N07109575WA0102001012
B2011244424988N07109621WA0102301014
B2011294424950N07109675WA0102001019
B2011344424923N07109740WA0100701019
B2011394424880N07109821WA0099201021
B2011444424834N07109908WA0099001021
B2011494424798N07109996WA0099401021
B2011544424768N07110071WA0101401021
B2011594424746N07110137WA0102201025
B2012044424728N07110205WA0102101027
B2012094424707N07110279WA0101901031
B2012144424687N07110351WA0102401033
B2012194424673N07110418WA0102601035
B2012244424662N07110488WA0102701037
B2012294424649N07110558WA0102801039
B2012344424642N07110626WA0103101041
B2012394424634N07110691WA0103301043
B2012444424628N07110755WA0103101045
B2012494424603N07110822WA0102501045
B2012544424530N07110861WA0102001045
B2012594424443N07110876WA0103501047
B2013044424364N07110877WA0105401051
B2013094424292N07110899WA0105401055
B2013144424272N07110948WV0105100000
B2013194424341N07110900WA0104201060
B2013244424377N07110789WA0105501062
B2013294424351N07110651WA0107001064
B2013344424265N07110618WA0107001068
B2013394424232N07110692WA0107501070
B2013444424274N07110714WA0108101074
B2013494424290N07110601WA0108501078
B2013544424213N07110513WA0108801080
B2013594424148N07110563WA0109101084
B2014044424152N07110628WA0109901088
B2014094424196N07110647WA0110001092
B2014144424250N07110634WA0109901096
B2014194424306N07110622WA0110101101
B2014244424352N07110604WA0111001105
B2014294424404N07110585WA0110801109
B2014344424457N07110563WA0111901113
B2014394424507N07110533WA0112901119
B2014444424548N07110510WA0113501123
B2014494424584N07110535WA0112501129
B2014544424582N07110616WA0111201130
B2014594424524N07110694WA0111401130
B2015044424457N07110754WA0113001132
B2015094424394N07110808WA0114501137
B2015144424345N07110871WA0115401141
B2015194424361N07110915WA0115701143
B2015244424417N07110864WA0116201145
B2015294424425N07110753WA0118201150
B2015344424360N07110657WA0118501154
B2015394424276N07110658WA0120001158
B2015444424248N07110723WA0120001162
B2015494424279N07110771WA0120601166
B2015544424322N07110784WA0122201170
B2015594424368N07110773WA0122801174
B2016044424404N07110684WA0122901178
B2016094424376N07110551WA0124501182
B2016144424295N07110492WA0124401188
B2016194424214N07110521WA0124701192
B2016244424181N07110597WA0125301196
B2016294424196N07110661WA0126201202
B2016344424252N07110669WA0127001206
B2016394424289N07110575WA0127701212
B2016444424255N07110442WA0129701218
B2016494424170N07110405WA0130001226
B2016544424120N07110470WA0130401234
B2016594424133N07110533WA0131301242
B2017044424174N07110557WA0132201250
B2017094424217N07110575WA0132401258
B2017144424265N07110590WA0133701267
B2017194424312N07110583WA0134901277
B2017244424365N07110575WA0134801287
B2017294424389N07110619WA0134301295
B2017344424369N07110700WA0134401303
B2017394424328N07110775WA0135301311
B2017444424291N07110850WA0137201321
B2017494424274N07110924WA0138901331
B2017544424251N07110992WA0139801341
B2017594424237N07111067WA0139401349
B2018044424237N07111137WA0139701357
B2018094424237N07111203WA0139701365
B2018144424245N07111258WA0140301371
B2018194424278N07111268WA0139901377
B2018244424325N07111204WA0139301382
B2018294424337N07111082WA0139301386
B2018344424322N07110949WA0140101390
B2018394424284N07110822WA0141301395
B2018444424239N07110706WA0141801401
B2018494424157N07110641WA0142501407
B2018544424083N07110673WA0143101412
B2018594424055N07110747WA0142601418
B2019044424061N07110813WA0143401422
B2019094424082N07110863WA0143601426
B2019144424118N07110885WA0143801430
B2019194424166N07110868WA0144601434
B2019244424216N07110861WA0145001436
B2019294424258N07110865WA0146301441
B2019344424294N07110867WA0146701445
B2019394424329N07110902WA0145801449
B2019444424360N07110958WA0146401451
B2019494424387N07111003WA0148001455
B2019544424416N07111031WA0148801459
B2019594424451N07111051WA0148301461
B2020044424488N07111078WA0148101463
B2020094424523N07111107WA0148601465
B2020144424556N07111137WA0149101467
B2020194424588N07111160WA0149601469
B2020244424617N07111188WA0149901471
B2020294424641N07111223WA0149901473
B2020344424665N07111264WA0151101475
B2020394424676N07111301WA0152901477
B2020444424684N07111344WA0152901481
B2020494424692N07111392WA0153801483
B2020544424698N07111427WA0154801487
B2020594424709N07111470WA0154701491
B2021044424718N07111510WA0155401497
B2021094424727N07111544WA0155901503
B2021144424740N07111575WA0156501509
B2021194424733N07111616WA0157101515
B2021244424682N07111663WA0156501522
B2021294424599N07111685WA0156701528
B2021344424502N07111651WA0156201534
B2021394424413N07111554WA0155601539
B2021444424366N07111411WA0155301543
B2021494424352N07111273WA0156701547
B2021544424347N07111144WA0157301551
B2021594424348N07111024WA0158001557
B2022044424355N07110904WA0157501563
B2022094424375N07110788WA0158201565
B2022144424398N07110685WA0159201571
B2022194424431N07110594WA0159301575
B2022244424467N07110502WA0160001581
B2022294424505N07110439WA0161301587
B2022344424547N07110401WA0162001593
B2022394424585N07110378WA0162501601
B2022444424620N07110365WA0162501607
B2022494424654N07110355WA0162201611
B2022544424665N07110382WA0162401613
B2022594424622N07110431WA0162301616
B2023044424536N07110454WA0162001618
B2023094424440N07110456WA0162201618
B2023144424344N07110453WA0162901621
B2023194424257N07110455WA0163301623
B2023244424183N07110475WA0163201625
B2023294424133N07110518WA0163401627
B2023344424102N07110566WA0163501629
B2023394424086N07110618WA0163201631
B2023444424069N07110677WA0163001631
B2023494424054N07110735WA0163701633
B2023544424043N07110785WA0164101635
B2023594424031N07110843WA0164001637
B2024044424022N07110894WA0164401637
B2024094424015N07110941WA0164601639
B2024144424008N07110988WA0165201643
B2024194424001N07111026WA0165901645
B2024244423996N07111063WA0166101649
B2024294423996N07111099WA0166501651
B2024344424001N07111131WA0166801655
B2024394424006N07111160WA0167401657
B2024444424012N07111183WA0168301661
B2024494424018N07111205WA0169001665
B2024544424023N07111228WA0169701667
B2024594424031N07111249WA0170101671
B2025044424039N07111264WA0170801673
B2025094424048N07111279WA0171001677
B2025144424059N07111297WA0171301679
B2025194424072N07111311WA0172001681
B2025244424080N07111327WA0172501685
B2025294424069N07111361WA0172701687
B2025344424033N07111400WA0173301690
B2025394423991N07111437WA0173901692
B2025444423951N07111474WA0174701697
B2025494423909N07111509WA0175301699
B2025544423867N07111550WA0175701703
B2025594423825N07111593WA0175901707
B2026044423785N07111639WA0175901711
B2026094423742N07111685WA0175901715
B2026144423689N07111725WA0176101721
B2026194423632N07111755WA0176301725
B2026244423569N07111787WA0176401731
B2026294423502N07111808WA0177201737
B2026344423441N07111835WA0177301743
B2026394423385N07111870WA0178001749
B2026444423328N07111900WA0178801755
B2026494423271N07111932WA0178901761
B2026544423211N07111961WA0179101767
B2026594423146N07111990WA0179001771
B2027044423079N07112019WA0179701777
B2027094423013N07112045WA0180201783
B2027144422952N07112077WA0180401787
B2027194422896N07112112WA0180301791
B2027244422840N07112145WA0180601795
B2027294422796N07112183WA0180501799
B2027344422787N07112235WA0179901801
B2027394422801N07112274WA0180201802
B2027444422819N07112306WA0180601804
B2027494422840N07112332WA0180901807
B2027544422860N07112358WA0181301809
B2027594422881N07112388WA0181601811
B2028044422896N07112421WA0182501813
B2028094422907N07112457WA0182701817
B2028144422918N07112493WA0182901819
B2028194422928N07112529WA0182901821
B2028244422932N07112572WA0182701823
B2028294422934N07112617WA0183101825
B2028344422933N07112662WA0183901829
B2028394422924N07112713WA0183801831
B2028444422900N07112772WA0183401831
B2028494422866N07112826WA0184501835
B2028544422839N07112873WA0186001837
B2028594422813N07112915WA0186901841
B2029044422789N07112957WA0187301845
B2029094422764N07113003WA0187801849
B2029144422739N07113045WA0189401855
B2029194422716N07113085WA0189601861
B2029244422699N07113131WA0189801865
B2029294422690N07113160WA0191601871
B2029344422681N07113182WA0191901877
B2029394422677N07113209WA0192201883
B2029444422665N07113235WA0193001889
B2029494422612N07113266WA0193101893
B2029544422517N07113233WA0193501899
B2029594422428N07113110WA0194301902
B2030044422379N07112957WA0195201906
B2030094422355N07112811WA0195901911
B2030144422350N07112664WA0196401917
B2030194422358N07112537WA0197501921
B2030244422372N07112415WA0197701927
B2030294422395N07112300WA0198101933
B2030344422423N07112192WA0198401939
B2030394422458N07112093WA0198901945
B2030444422497N07112014WA0200501951
B2030494422532N07111944WA0201201959
B2030544422573N07111872WA0200601965
B2030594422617N07111807WA0200901971
B2031044422660N07111758WA0201401977
B2031094422700N07111703WA0202701985
B2031144422732N07111638WA0204401993
B2031194422762N07111570WA0204802001
B2031244422796N07111520WA0205202009
B2031294422810N07111520WA0206002017
B2031344422782N07111561WA0205702023
B2031394422751N07111607WA0206402029
B2031444422714N07111651WA0207002033
B2031494422673N07111694WA0207902039
B2031544422638N07111734WA0209002043
B2031594422603N07111772WA0209802047
B2032044422569N07111809WA0210502053
B2032094422544N07111844WA0210502057
B2032144422523N07111878WA0210902063
B2032194422507N07111907WA0211502067
B2032244422503N07111924WA0212002073
B2032294422511N07111932WA0212602077
B2032344422519N07111935WA0213502081
B2032394422527N07111936WA0214202087
B2032444422537N07111939WA0215002093
B2032494422547N07111940WA0215802099
B2032544422557N07111939WA0216502107
B2032594422569N07111937WA0217202113
B2033044422580N07111934WA0218102121
B2033094422591N07111927WA0218902125
B2033144422603N07111916WA0219702131
B2033194422614N07111908WA0220202137
B2033244422625N07111901WA0220902143
B2033294422635N07111892WA0221502149
B2033344422650N07111879WA0221902153
B2033394422666N07111862WA0222602159
B2033444422682N07111844WA0223102165
B2033494422698N07111827WA0223602169
B2033544422714N07111807WA0224102175
B2033594422733N07111782WA0224302181
B2034044422751N07111758WA0224702187
B2034094422756N07111759WA0224802195
B2034144422725N07111791WA0224802198
B2034194422657N07111819WA0225102204
B2034244422566N07111833WA0225102209
B2034294422464N07111830WA0225702213
B2034344422359N07111814WA0226102217
B2034394422249N07111791WA0226102219
B2034444422135N07111760WA0226202223
B2034494422015N07111726WA0225802225
B2034544421895N07111697WA0226502229
B2034594421774N07111667WA0227102233
B2035044421653N07111638WA0227702237
B2035094421531N07111613WA0228302241
B2035144421409N07111588WA0228902247
B2035194421289N07111559WA0229602251
B2035244421170N07111535WA0229902257
B2035294421054N07111521WA0230102263
B2035344420945N07111526WA0230102267
B2035394420843N07111541WA0230402273
B2035444420743N07111561WA0230702277
B2035494420644N07111583WA0231002281
B2035544420546N07111602WA0231902283
B2035594420449N07111620WA0233102287
B2036044420353N07111641WA0234302291
B2036094420253N07111662WA0235502297
B2036144420145N07111672WA0236802303
B2036194420037N07111674WA0238502309
B2036244419928N07111670WA0240502317
B2036294419818N07111664WA0242102325
B2036344419707N07111655WA0243802333
B2036394419594N07111644WA0245202341
B2036444419478N07111630WA0246702349
B2036494419366N07111620WA0248102357
B2036544419256N07111616WA0249402365
B2036594419147N07111616WA0251002373
B2037044419038N07111614WA0252602383
B2037094418928N07111614WA0254302391
B2037144418821N07111617WA0256402399
B2037194418717N07111624WA0258402407
B2037244418614N07111634WA0260302415
B2037294418517N07111651WA0262502423
B2037344418430N07111680WA0264802433
B2037394418353N07111711WA0267502443
B2037444418283N07111741WA0270402459
B2037494418210N07111770WA0273502475
B2037544418161N07111797WA0276302497
B2037594418120N07111827WA0278702517
B2038044418083N07111857WA0281402537
B2038094418041N07111887WA0283702559
B2038144417995N07111920WA0285902579
B2038194417947N07111953WA0287902599
B2038244417894N07111989WA0290002621
B2038294417839N07112023WA0292402645
B2038344417786N07112057WA0294602669
B2038394417732N07112090WA0297102695
B2038444417678N07112118WA0299802723
B2038494417627N07112145WA0302502753
B2038544417579N07112168WA0305102783
B2038594417534N07112189WA0307702815
B2039044417499N07112214WA0310202847
B2039094417457N07112228WA0313202871
B2039144417417N07112233WA0316002901
B2039194417382N07112239WA0318102929
B2039244417355N07112249WA0320102955
B2039294417326N07112259WA0322202981
B2039344417292N07112270WA0323803005
B2039394417254N07112287WA0325203029
B2039444417212N07112306WA0326503053
B2039494417168N07112329WA0328003075
B2039544417123N07112353WA0329303099
B2039594417075N07112378WA0330603121
B2040044417025N07112406WA0331703141
B2040094416975N07112437WA0333003161
B2040144416924N07112466WA0334303181
B2040194416871N07112496WA0335403199
B2040244416818N07112527WA0336403217
B2040294416764N07112558WA0337503233
B2040344416707N07112595WA0337503247
B2040394416648N07112643WA0337603261
B2040444416583N07112692WA0338603273
B2040494416508N07112733WA0339703283
B2040544416428N07112774WA0340403295
B2040594416346N07112817WA0341203307
B2041044416265N07112859WA0342403317
B2041094416185N07112901WA0343503329
B2041144416105N07112944WA0344703341
B2041194416019N07112983WA0345803353
B2041244415933N07113023WA0347003367
B2041294415846N07113062WA0348603381
B2041344415763N07113101WA0350103395
B2041394415683N07113139WA0352103411
B2041444415605N07113171WA0354403427
B2041494415531N07113204WA0356003445
B2041544415458N07113235WA0358103463
B2041594415389N07113262WA0360503481
B2042044415321N07113283WA0362803499
B2042094415256N07113303WA0365203517
B2042144415195N07113320WA0367503533
B2042194415133N07113337WA0369203549
B2042244415064N07113351WA0371403565
B2042294414990N07113357WA0374003579
B2042344414919N07113360WA0376103593
B2042394414850N07113360WA0378503607
B2042444414783N07113356WA0380803621
B2042494414717N07113352WA0383103635
B2042544414655N07113348WA0385203649
B2042594414598N07113345WA0387403665
B2043044414546N07113339WA0389803683
B2043094414498N07113334WA0391903701
B2043144414455N07113329WA0394003721
B2043194414414N07113323WA0396303741
B2043244414375N07113315WA0398503765
B2043294414340N07113310WA0400303787
B2043344414309N07113303WA0402503813
B2043394414280N07113295WA0404703839
B2043444414253N07113286WA0406703867
B2043494414228N07113275WA0408703895
B2043544414205N07113264WA0410803923
B2043594414185N07113250WA0412803951
B2044044414167N07113236WA0414703979
B2044094414151N07113219WA0416704005
B2044144414136N07113203WA0418404033
B2044194414124N07113187WA0420404059
B2044244414116N07113166WA0422504085
B2044294414108N07113145WA0424204109
B2044344414102N07113125WA0425704133
B2044394414100N07113108WA0427004155
B2044444414102N07113095WA0428104175
B2044494414106N07113084WA0429504195
B2044544414108N07113074WA0431004215
B2044594414109N07113066WA0432404233
B2045044414105N07113061WA0434404249
B2045094414079N07113051WA0436204267
B2045144414045N07113047WA0436904281
B2045194414010N07113049WA0437804293
B2045244413972N07113057WA0439004301
B2045294413934N07113060WA0440804311
B2045344413895N07113059WA0442704321
B2045394413861N07113059WA0444004331
B2045444413831N07113061WA0445304341
B2045494413806N07113062WA0446804351
B2045544413781N07113062WA0448004361
B2045594413759N07113066WA0448804371
B2046044413741N07113077WA0449204381
B2046094413730N07113092WA0450504393
B2046144413725N07113102WA0452504403
B2046194413725N07113108WA0453904415
B2046244413727N07113117WA0454704427
B2046294413732N07113129WA0455704439
B2046344413740N07113140WA0457204451
B2046394413752N07113147WA0458904465
B2046444413766N07113152WA0460204479
B2046494413781N07113158WA0461204495
B2046544413801N07113166WA0462404509
B2046594413818N07113169WA0464404525
B2047044413839N07113169WA0465504541
B2047094413870N07113168WA0466304557
B2047144413901N07113166WA0467904573
B2047194413933N07113158WA0469704589
B2047244413965N07113146WA0471404605
B2047294413996N07113131WA0472704621
B2047344414029N07113119WA0473404637
B2047394414064N07113109WA0474504653
B2047444414100N07113095WA0475604667
B2047494414135N07113081WA0476904681
B2047544414167N07113068WA0478004693
B2047594414202N07113057WA0478704707
B2048044414230N07113049WA0479704719
B2048094414255N07113045WA0480004729
B2048144414283N07113049WA0480304739
B2048194414309N07113052WA0481804749
B2048244414337N07113049WA0483304757
B2048294414366N07113042WA0484304767
B2048344414397N07113037WA0485104777
B2048394414430N07113029WA0486404787
B2048444414463N07113017WA0487304797
B2048494414493N07113010WA0487704805
B2048544414520N07113008WA0488404813
B2048594414543N07113005WA0489604821
B2049044414567N07112999WA0490504831
B2049094414595N07112994WA0491104839
B2049144414626N07112992WA0491704847
B2049194414656N07112987WA0493004855
B2049244414659N07112986WA0493404863
B2049294414668N07112998WA0492604869
B2049344414681N07113016WA0493104877
B2049394414697N07113031WA0494404883
B2049444414716N07113041WA0495704887
B2049494414738N07113046WA0497204893
B2049544414764N07113044WA0498704899
B2049594414792N07113039WA0499904905
B2050044414821N07113034WA0500104909
B2050094414855N07113036WA0500404913
B2050144414888N07113040WA0501204917
B2050194414922N07113043WA0502304921
B2050244414966N07113036WA0503904925
B2050294415019N07113018WA0505304929
B2050344415075N07112997WA0506204933
B2050394415133N07112976WA0507004939
B2050444415192N07112956WA0507704943
B2050494415248N07112939WA0508604949
B2050544415298N07112923WA0509604957
B2050594415350N07112905WA0510604967
B2051044415405N07112886WA0511204977
B2051094415459N07112869WA0512004987
B2051144415512N07112851WA0513005001
B2051194415568N07112829WA0513905015
B2051244415629N07112802WA0514905029
B2051294415692N07112773WA0515605045
B2051344415754N07112746WA0516305061
B2051394415812N07112722WA0517105077
B2051444415864N07112700WA0518105093
B2051494415912N07112678WA0518905109
B2051544415963N07112657WA0518805123
B2051594416015N07112649WA0518305135
B2052044416063N07112643WA0519205145
B2052094416108N07112637WA0520005155
B2052144416149N07112625WA0521505163
B2052194416187N07112607WA0522705173
B2052244416225N07112590WA0523205183
B2052294416262N07112574WA0523805191
B2052344416299N07112557WA0524605197
B2052394416336N07112539WA0525505205
B2052444416374N07112520WA0526305211
B2052494416411N07112500WA0526805217
B2052544416449N07112481WA0527505221
B2052594416484N07112462WA0528105227
B2053044416520N07112442WA0528805231
B2053094416553N07112420WA0529505235
B2053144416578N07112400WA0529905239
B2053194416596N07112385WA0530105243
B2053244416612N07112369WA0530805247
B2053294416629N07112354WA0530905251
B2053344416645N07112348WA0530305253
B2053394416663N07112349WA0530305257
B2053444416683N07112349WA0530805259
B2053494416702N07112350WA0531305263
B2053544416722N07112352WA0531805269
B2053594416741N07112353WA0532305273
B2054044416757N07112355WA0532805279
B2054094416772N07112357WA0533305285
B2054144416787N07112358WA0533905293
B2054194416801N07112359WA0534505301
B2054244416810N07112359WA0535005307
B2054294416813N07112358WA0535605315
B2054344416816N07112356WA0536205321
B2054394416823N07112355WA0536605327
B2054444416831N07112354WA0537705335
B2054494416837N07112353WA0538205341
B2054544416843N07112352WA0538705347
B2054594416850N07112353WA0539005353
B2055044416860N07112355WA0539505359
B2055094416871N07112356WA0540005367
B2055144416881N07112360WA0539705373
B2055194416889N07112373WA0539305377
B2055244416891N07112390WA0539005379
B2055294416884N07112409WA0539205380
B2055344416875N07112426WA0539505382
B2055394416867N07112445WA0539805385
B2055444416860N07112463WA0540105387
B2055494416854N07112482WA0540605391
B2055544416848N07112499WA0540905393
B2055594416842N07112517WA0541205397
B2056044416835N07112536WA0541505399
B2056094416832N07112554WA0541105401
B2056144416833N07112571WA0541905405
B2056194416836N07112581WA0543405409
B2056244416842N07112585WA0544405413
B2056294416844N07112589WA0544905419
B2056344416842N07112589WA0545605423
B2056394416839N07112588WA0546105429
B2056444416836N07112588WA0546505433
B2056494416834N07112590WA0546905437
B2056544416833N07112592WA0547405441
B2056594416831N07112592WA0548205445
B2057044416832N07112590WA0549005449
B2057094416834N07112588WA0549405451
B2057144416833N07112587WA0549605455
B2057194416829N07112588WA0549905459
B2057244416828N07112590WA0550405463
B2057294416832N07112593WA0550405465
B2057344416836N07112603WA0550105469
B2057394416842N07112615WA0550505471
B2057444416850N07112624WA0551505475
B2057494416860N07112633WA0551805479
B2057544416869N07112643WA0551905483
B2057594416868N07112654WA0552105489
B2058044416858N07112662WA0552405492
B2058094416842N07112671WA0552705498
B2058144416830N07112680WA0553205503
B2058194416818N07112690WA0554005509
B2058244416806N07112696WA0554605513
B2058294416796N07112702WA0554905519
B2058344416789N07112709WA0555105525
B2058394416786N07112718WA0555505529
B2058444416781N07112726WA0556205535
B2058494416777N07112732WA0556805541
B2058544416776N07112737WA0557505547
B2058594416778N07112742WA0557905553
B2059044416781N07112748WA0558305559
B2059094416787N07112754WA0558805567
B2059144416794N07112759WA0559305573
B2059194416801N07112761WA0560205579
B2059244416806N07112760WA0561105587
B2059294416811N07112758WA0561405593
B2059344416813N07112758WA0561305599
B2059394416802N07112761WA0561105603
B2059444416788N07112768WA0560605607
B2059494416771N07112782WA0559505609
B2059544416750N07112805WA0558605611
B2059594416729N07112832WA0558405609
B2100044416710N07112862WA0558205609
B2100094416691N07112895WA0558305609
B2100144416672N07112925WA0558905609
B2100194416657N07112953WA0559605611
B2100244416640N07112980WA0559805613
B2100294416624N07113008WA0559705615
B2100344416609N07113040WA0559705615
B2100394416598N07113072WA0560105617
B2100444416591N07113100WA0561505619
B2100494416588N07113117WA0563805623
B2100544416590N07113123WA0565305629
B2100594416596N07113124WA0566405636
B2101044416604N07113123WA0567305642
B2101094416610N07113120WA0567905650
B2101144416612N07113117WA0568405657
B2101194416610N07113115WA0568805663
B2101244416608N07113113WA0569205669
B2101294416602N07113111WA0569805675
B2101344416594N07113106WA0570405681
B2101394416587N07113102WA0570805685
B2101444416579N07113100WA0571305691
B2101494416571N07113099WA0571905695
B2101544416564N07113095WA0572605699
B2101594416557N07113092WA0573205703
B2102044416550N07113089WA0573505705
B2102094416544N07113089WA0573805709
B2102144416538N07113090WA0575005711
B2102194416534N07113091WA0575805713
B2102244416529N07113090WA0576305715
B2102294416522N07113091WA0576705717
B2102344416515N07113095WA0576905719
B2102394416509N07113102WA0576905721
B2102444416504N07113115WA0576405723
B2102494416499N07113139WA0575405725
B2102544416490N07113171WA0574705727
B2102594416483N07113207WA0574605727
B2103044416475N07113242WA0575505729
B2103094416469N07113266WA0577705731
B2103144416465N07113273WA0580205733
B2103194416463N07113267WA0582205739
B2103244416463N07113253WA0583605746
B2103294416464N07113240WA0584105755
B2103344416465N07113232WA0584105763
B2103394416466N07113228WA0584405771
B2103444416467N07113227WA0585005781
B2103494416468N07113226WA0585605789
B2103544416468N07113224WA0586405797
B2103594416467N07113221WA0587205807
B2104044416466N07113217WA0587905815
B2104094416465N07113214WA0588605823
B2104144416465N07113211WA0589305829
B2104194416468N07113208WA0590105836
B2104244416475N07113204WA0590905844
B2104294416485N07113201WA0591605851
B2104344416498N07113198WA0592205859
B2104394416512N07113197WA0592705865
B2104444416526N07113196WA0593305873
B2104494416538N07113193WA0594105879
B2104544416545N07113190WA0594705887
B2104594416551N07113185WA0595305895
B2105044416572N07113182WA0595605901
B2105094416639N07113176WA0594405907
B2105144416741N07113151WA0594405913
B2105194416861N07113103WA0595005917
B2105244416993N07113037WA0595005923
B2105294417139N07112954WA0594405927
B2105344417288N07112869WA0594405931
B2105394417437N07112783WA0594105935
B2105444417583N07112697WA0593205941
B2105494417725N07112606WA0593305945
B2105544417861N07112512WA0593805949
B2105594417994N07112415WA0594105953
B2106044418123N07112323WA0593205957
B2106094418248N07112248WA0591905957
B2106144418368N07112187WA0592305957
B2106194418483N07112139WA0591705955
B2106244418601N07112101WA0590405951
B2106294418720N07112074WA0589105947
B2106344418837N07112057WA0588805945
B2106394418953N07112044WA0588405941
B2106444419066N07112039WA0588005935
B2106494419174N07112045WA0586805931
B2106544419278N07112059WA0586105927
B2106594419375N07112080WA0585705921
B2107044419467N07112104WA0585705919
B2107094419572N07112098WA0589605917
B2107144419691N07112020WA0594105919
B2107194419811N07111912WA0595005921
B2107244419942N07111790WA0593905925
B2107294420085N07111642WA0593205927
B2107344420233N07111469WA0593005929
B2107394420379N07111263WA0593105931
B2107444420515N07111011WA0593305931
B2107494420630N07110717WA0593405933
B2107544420709N07110379WA0592805935
B2107594420749N07110020WA0592405937
B2108044420756N07109658WA0592105937
B2108094420741N07109303WA0592205937
B2108144420713N07108959WA0592505939
B2108194420676N07108624WA0592605939
B2108244420629N07108300WA0592405941
B2108294420570N07107988WA0591505941
B2108344420504N07107684WA0590605943
B2108394420435N07107382WA0589705939
B2108444420364N07107084WA0588905935
B2108494420280N07106810WA0587805929
B2108544420188N07106549WA0586505923
B2108594420080N07106327WA0583905913
B2109044419955N07106159WA0580205897
B2109094419824N07106021WA0578105879
B2109144419703N07105902WA0576805863
B2109194419613N07105793WA0579605853
B2109244419550N07105696WA0577505847
B2109294419512N07105642WA0572205835
B2109344419512N07105615WA0566705815
B2109394419545N07105591WA0561305791
B2109444419596N07105566WA0556205765
B2109494419659N07105532WA0551205739
B2109544419729N07105498WA0546005713
B2109594419803N07105464WA0540505687
B2110044419878N07105441WA0534405657
B2110094419950N07105424WA0528605627
B2110144420018N07105408WA0523505597
B2110194420082N07105393WA0518105563
B2110244420147N07105384WA0512305529
B2110294420224N07105369WA0505905493
B2110344420294N07105364WA0499305455
B2110394420333N07105382WA0491605411
B2110444420370N07105406WA0485305365
B2110494420405N07105425WA0479705317
B2110544420441N07105441WA0474005265
B2110594420474N07105457WA0468005211
B2111044420508N07105472WA0461805153
B2111094420545N07105488WA0455305089
B2111144420576N07105506WA0448805023
B2111194420601N07105530WA0442704953
B2111244420623N07105553WA0436504887
B2111294420645N07105575WA0430404821
B2111344420666N07105596WA0424004755
B2111394420684N07105617WA0417804687
B2111444420697N07105637WA0411604619
B2111494420706N07105657WA0405504549
B2111544420714N07105676WA0399304479
B2111594420721N07105695WA0392904409
B2112044420729N07105717WA0386004339
B2112094420736N07105745WA0379004269
B2112144420739N07105776WA0372704199
B2112194420732N07105809WA0366304129
B2112244420713N07105851WA0360104059
B2112294420712N07105890WA0353603991
B2112344420710N07105928WA0346803923
B2112394420699N07105973WA0340103855
B2112444420686N07106026WA0333203787
B2112494420673N07106087WA0326203717
B2112544420658N07106151WA0320203643
B2112594420644N07106212WA0315403569
B2113044420637N07106277WA0312603497
B2113094420640N07106346WA0310103431
B2113144420654N07106417WA0307203369
B2113194420676N07106492WA0304503315
B2113244420705N07106567WA0301803267
B2113294420739N07106640WA0298803223
B2113344420773N07106718WA0296003183
B2113394420807N07106794WA0293803147
B2113444420841N07106868WA0291403115
B2113494420879N07106941WA0288403083
B2113544420919N07107017WA0285303055
B2113594420959N07107101WA0281803025
B2114044421002N07107191WA0278502995
B2114094421047N07107286WA0275902963
B2114144421090N07107382WA0273802933
B2114194421128N07107479WA0272102903
B2114244421164N07107575WA0270502873
B2114294421202N07107667WA0268602843
B2114344421240N07107762WA0266502813
B2114394421274N07107861WA0264402783
B2114444421307N07107959WA0262702755
B2114494421343N07108054WA0260902727
B2114544421385N07108144WA0258802701
B2114594421432N07108231WA0256802675
B2115044421483N07108316WA0255102649
B2115094421534N07108400WA0253602625
B2115144421582N07108486WA0252002603
B2115194421629N07108575WA0250002583
B2115244421676N07108667WA0248202563
B2115294421724N07108760WA0246702543
B2115344421773N07108854WA0245102525
B2115394421825N07108946WA0243502507
B2115444421881N07109036WA0242002491
B2115494421938N07109122WA0240702475
B2115544421995N07109209WA0240102461
B2115594422047N07109298WA0238902445
B2116044422097N07109389WA0237702433
B2116094422147N07109479WA0236402421
B2116144422200N07109567WA0234902411
B2116194422255N07109654WA0233502399
B2116244422317N07109737WA0231902387
B2116294422387N07109815WA0230102373
B2116344422457N07109898WA0228202359
B2116394422526N07109989WA0226302345
B2116444422592N07110082WA0225202331
B2116494422652N07110176WA0224402319
B2116544422710N07110274WA0222902305
B2116594422767N07110382WA0221202293
B2117044422817N07110499WA0220202279
B2117094422860N07110620WA0219702267
B2117144422896N07110744WA0219102257
B2117194422927N07110872WA0218502247
B2117244422959N07110997WA0218402237
B2117294422998N07111111WA0218702227
B2117344423038N07111219WA0219002221
B2117394423076N07111324WA0219302217
B2117444423112N07111429WA0219002213
B2117494423151N07111534WA0218502209
B2117544423193N07111639WA0217802205
B2117594423236N07111745WA0217302199
B2118044423276N07111848WA0218102197
B2118094423310N07111929WA0221702197
B2118144423331N07111974WA0227502205
B2118194423335N07111985WA0229702221
B2118244423337N07112014WA0225302231
B2118294423347N07112065WA0221402231
B2118344423360N07112107WA0219202231
B2118394423377N07112142WA0216902225
B2118444423402N07112167WA0214202219
B2118494423433N07112185WA0211502211
B2118544423463N07112201WA0208802201
B2118594423495N07112217WA0205902189
B2119044423530N07112233WA0203102177
B2119094423564N07112246WA0200602167
B2119144423598N07112259WA0197502155
B2119194423632N07112274WA0194502145
B2119244423665N07112288WA0191602135
B2119294423698N07112302WA0188202123
B2119344423735N07112315WA0184302111
B2119394423777N07112328WA0180602095
B2119444423817N07112344WA0177502079
B2119494423853N07112365WA0174802059
B2119544423884N07112392WA0172002037
B2119594423916N07112416WA0169202015
B2120044423950N07112436WA0166301991
B2120094423989N07112447WA0163101967
B2120144424031N07112452WA0159501945
B2120194424073N07112463WA0155401923
B2120244424112N07112482WA0152001901
B2120294424144N07112511WA0148701881
B2120344424172N07112546WA0145301863
B2120394424195N07112588WA0141801841
B2120444424212N07112634WA0138701817
B2120494424233N07112665WA0136601791
B2120544424270N07112669WA0133101759
B2120594424327N07112629WA0128601725
B2121044424383N07112550WA0125201688
B2121094424435N07112456WA0121801655
B2121144424489N07112362WA0117601627
B2121194424549N07112279WA0112601599
B2121244424617N07112207WA0108501587
B2121294424679N07112125WA0105501555
B2121344424730N07112015WA0101701523
B2121394424768N07111873WA0100901487
B2121444424787N07111727WA0101101451
B2121494424799N07111569WA0100301415
B2121544424810N07111402WA0099101377
B2121594424815N07111223WA0098201337
B2122044424812N07111042WA0098501297
B2122094424806N07110866WA0099401259
B2122144424798N07110691WA0099501223
B2122194424789N07110510WA0098701191
B2122244424784N07110323WA0098101159
B2122294424788N07110135WA0098301131
B2122344424815N07109957WA0098601111
B2122394424859N07109799WA0099501091
B2122444424909N07109658WA0100101075
B2122494424981N07109587WA0101101067
B2122544425038N07109593WA0102201060
B2122594425025N07109662WA0102401060
B2123044424965N07109725WA0103801058
B2123094424890N07109766WA0104901062
B2123144424819N07109812WA0104701065
B2123194424780N07109879WA0104501067
B2123244424796N07109936WA0104501068
B2123294424841N07109941WA0105301070
B2123344424889N07109894WA0105701072
B2123394424935N07109826WA0106301076
B2123444424981N07109770WA0106901081
B2123494425025N07109758WA0107101087
B2123544425048N07109801WA0107201092
B2123594425023N07109867WA0108401096
B2124044424959N07109904WA0108701100
B2124094424872N07109922WA0108001102
B2124144424789N07109953WA0108101103
B2124194424740N07110012WA0108001103
B2124244424734N07110081WA0107401103
B2124294424761N07110118WA0108101102
B2124344424803N07110108WA0108001104
B2124394424850N07110030WA0106701104
B2124444424891N07109934WA0107101102
B2124494424932N07109849WA0107201103
B2124544424981N07109761WA0107401103
B2124594425026N07109676WA0108201103
B2125044425073N07109632WA0108301103
B2125094425106N07109655WA0108201105
B2125144425084N07109713WA0108601106
B2125194425028N07109761WA0109701106
B2125244424966N07109807WA0109601108
B2125294424901N07109868WA0109401111
B2125344424847N07109933WA0110101111
B2125394424805N07110000WA0110801113
B2125444424762N07110065WA0111801115
B2125494424715N07110122WA0112901119
B2125544424678N07110186WA0112901123
B2125594424668N07110254WA0113201125
B2126044424680N07110314WA0113201127
B2126094424722N07110338WA0113201130
B2126144424772N07110286WA0113501132
B2126194424811N07110178WA0112001134
B2126244424847N07110058WA0111701136
B2126294424891N07109963WA0112901137
B2126344424942N07109909WA0113801139
B2126394424998N07109867WA0113401141
B2126444425055N07109807WA0112801141
B2126494425109N07109790WA0113401143
B2126544425155N07109824WA0112101143
B2126594425204N07109874WA0110401141
B2127044425250N07109929WA0108701137
B2127094425297N07109964WA0109101133
B2127144425327N07109995WA0109901133
B2127194425279N07110046WA0109101131
B2127244425178N07110054WA0108601128
B2127294425074N07110041WA0109401126
B2127344424982N07110062WA0109801127
B2127394424903N07110105WA0110101127
B2127444424838N07110154WA0110801127
B2127494424777N07110208WA0111301127
B2127544424743N07110268WA0111301129
B2127594424769N07110303WA0110701129
B2128044424823N07110274WA0110901128
B2128094424868N07110201WA0111501130
B2128144424909N07110109WA0111601131
B2128194424950N07110013WA0112001133
B2128244424993N07109926WA0112401133
B2128294425041N07109856WA0112701135
B2128344425090N07109823WA0113301135
B2128394425123N07109842WA0113901136
B2128444425122N07109899WA0114001138
B2128494425087N07109959WA0114701138
B2128544425023N07110002WA0115301140
B2128594424952N07110033WA0116201142
B2129044424885N07110064WA0116701145
B2129094424817N07110099WA0116901147
B2129144424754N07110143WA0116901149
B2129194424703N07110201WA0116501153
B2129244424681N07110268WA0116801155
B2129294424682N07110331WA0117101159
B2129344424686N07110401WA0116901163
B2129394424686N07110476WA0117001167
B2129444424683N07110558WA0114801169
B2129494424674N07110654WA0113101171
B2129544424661N07110751WA0111801169
B2129594424650N07110851WA0110101167
B2130044424636N07110951WA0109301163
B2130094424618N07111045WA0109101157
B2130144424597N07111135WA0108901163
B2130194424552N07111214WA0108001159
B2130244424509N07111294WA0106001153
B2130294424468N07111377WA0104601147
B2130344424428N07111457WA0103301143
B2130394424395N07111539WA0101601137
B2130444424371N07111623WA0099901133
B2130494424353N07111703WA0098801127
B2130544424344N07111777WA0097501123
B2130594424351N07111849WA0095501119
B2131044424370N07111921WA0093101119
B2131094424382N07111997WA0090701113
B2131144424392N07112072WA0089101107
B2131194424402N07112143WA0087601101
B2131244424413N07112216WA0084901095
B2131294424421N07112292WA0083001087
B2131344424429N07112365WA0081501077
B2131394424439N07112434WA0079101067
B2131444424454N07112500WA0077001053
B2131494424472N07112559WA0075101039
B2131544424489N07112613WA0073301023
B2131594424467N07112667WA0072001003
B2132044424390N07112688WA0068100982
B2132094424288N07112689WA0063400956
B2132144424184N07112651WA0059700929
B2132194424096N07112543WA0056200899
B2132244424048N07112378WA0053700869
B2132294424024N07112206WA0052200841
B2132344424001N07112039WA0050400811
B2132394423976N07111874WA0049000783
B2132444423949N07111714WA0047700753
B2132494423923N07111554WA0045600725
B2132544423885N07111398WA0044500695
B2132594423839N07111250WA0043100667
B2133044423784N07111113WA0041600641
B2133094423699N07111050WA0041000615
B2133144423617N07111083WA0038900591
B2133194423544N07111135WA0036000567
B2133244423490N07111202WA0032600545
B2133294423480N07111281WA0028500521
B2133344423495N07111370WA0023700497
B2133394423519N07111463WA0021700473
B2133444423539N07111538WA0019900453
B2133494423553N07111595WA0019800433
B2133544423563N07111631WA0019700419
B2133594423572N07111648WA0019800405
B2134044423576N07111653WA0019800393
B2134094423576N07111654WA0019700383
B2134144423576N07111655WA0019700373
B2134194423577N07111656WA0019800363
B2134244423577N07111657WA0019900351
B2134294423577N07111658WA0019900341
B2134344423577N07111657WA0019800335
B2134394423577N07111658WA0019800326
B2134444423578N07111658WA0019800318
B2134494423578N07111658WA0019800312
B2134544423578N07111659WA0019700306
B2134594423578N07111659WA0019800300
B2135044423578N07111660WA0019800292
B2135094423579N07111659WA0019800290
B2135144423579N07111659WA0019800286
B2135194423579N07111659WA0019800284
B2135244423579N07111660WA0019800280
B2135294423579N07111660WA0019800279
B2135344423579N07111661WA0019800277
B2135394423578N07111662WA0019800275
B2135444423578N07111662WA0019800273
B2135494423577N07111662WA0019800273
B2135544423577N07111662WA0019800271
B2135594423578N07111662WA0019700271
G1001134A68299B89D46E25CBC1944BBF51A8BF3E07F9A9E81CA13
